{
    "links": {
        "self": "http://www.neowsapp.com/rest/v1/neo/3669068?api_key=iIulBulltgU6a56xZRHN4H3l9WmuAYTsLGpBGhQ2"
    },
    "id": "3669068",
    "neo_reference_id": "3669068",
    "name": "(2014 HE5)",
    "designation": "2014 HE5",
    "nasa_jpl_url": "http://ssd.jpl.nasa.gov/sbdb.cgi?sstr=3669068",
    "absolute_magnitude_h": 25.4,
    "estimated_diameter": {
        "kilometers": {
            "estimated_diameter_min": 0.022108281,
            "estimated_diameter_max": 0.0494356193
        },
        "meters": {
            "estimated_diameter_min": 22.1082810359,
            "estimated_diameter_max": 49.435619262
        },
        "miles": {
            "estimated_diameter_min": 0.0137374447,
            "estimated_diameter_max": 0.0307178602
        },
        "feet": {
            "estimated_diameter_min": 72.5337327539,
            "estimated_diameter_max": 162.1903570994
        }
    },
    "is_potentially_hazardous_asteroid": false,
    "close_approach_data": [
        {
            "close_approach_date": "1901-09-04",
            "close_approach_date_full": "1901-Sep-04 09:47",
            "epoch_date_close_approach": -2156163180000,
            "relative_velocity": {
                "kilometers_per_second": "25.8302267562",
                "kilometers_per_hour": "92988.8163223898",
                "miles_per_hour": "57779.6342309872"
            },
            "miss_distance": {
                "astronomical": "0.4798365255",
                "lunar": "186.6564084195",
                "kilometers": "71782522.163000685",
                "miles": "44603590.976092053"
            },
            "orbiting_body": "Earth"
        },
        {
            "close_approach_date": "2014-04-29",
            "close_approach_date_full": "2014-Apr-29 03:12",
            "epoch_date_close_approach": 1398741120000,
            "relative_velocity": {
                "kilometers_per_second": "13.9976264453",
                "kilometers_per_hour": "50391.4552030213",
                "miles_per_hour": "31311.2905954551"
            },
            "miss_distance": {
                "astronomical": "0.0248406783",
                "lunar": "9.6630238587",
                "kilometers": "3716112.563035221",
                "miles": "2309085.2729632098"
            },
            "orbiting_body": "Earth"
        }
    ],
    "orbital_data": {
        "orbit_id": "6",
        "orbit_determination_date": "2019-07-19 05:25:46",
        "first_observation_date": "2014-04-23",
        "last_observation_date": "2014-04-26",
        "data_arc_in_days": 3,
        "observations_used": 24,
        "orbit_uncertainty": "8",
        "minimum_orbit_intersection": ".0243233",
        "jupiter_tisserand_invariant": "3.324",
        "epoch_osculation": "2456771.5",
        "eccentricity": ".6052160794907742",
        "semi_major_axis": "2.270592577265576",
        "inclination": "11.08925780877053",
        "ascending_node_longitude": "31.92689424622685",
        "orbital_period": "1249.704252197506",
        "perihelion_distance": ".8963934395320514",
        "perihelion_argument": "233.2942923235279",
        "aphelion_distance": "3.6447917149991",
        "perihelion_time": "2456811.368755841509",
        "mean_anomaly": "348.515081006002",
        "mean_motion": ".2880681564193837",
        "equinox": "J2000",
        "orbit_class": {
            "orbit_class_type": "APO",
            "orbit_class_description": "Near-Earth asteroid orbits which cross the Earth’s orbit similar to that of 1862 Apollo",
            "orbit_class_range": "a (semi-major axis) > 1.0 AU; q (perihelion) < 1.017 AU"
        }
    },
    "is_sentry_object": false
}